[{"OBJECT_NAME":"FLOCK 4G-24","OBJECT_ID":"2025-009AE","EPOCH":"2026-03-09T17:24:07.838208","MEAN_MOTION":15.27784978,"ECCENTRICITY":0.0001802,"INCLINATION":97.4061,"RA_OF_ASC_NODE":151.514,"ARG_OF_PERICENTER":280.2808,"MEAN_ANOMALY":79.8228,"EPHEMERIS_TYPE":0,"CLASSIFICATION_TYPE":"U","NORAD_CAT_ID":62637,"ELEMENT_SET_NO":999,"REV_AT_EPOCH":6373,"BSTAR":0.00038996067,"MEAN_MOTION_DOT":0.00010513,"MEAN_MOTION_DDOT":0},{"OBJECT_NAME":"STARLINK-35989","OBJECT_ID":"2025-278AE","EPOCH":"2026-03-09T04:50:31.157664","MEAN_MOTION":15.27588589,"ECCENTRICITY":0.00015847,"INCLINATION":43.0011,"RA_OF_ASC_NODE":117.1875,"ARG_OF_PERICENTER":275.3817,"MEAN_ANOMALY":84.6854,"EPHEMERIS_TYPE":0,"CLASSIFICATION_TYPE":"U","NORAD_CAT_ID":66819,"ELEMENT_SET_NO":999,"REV_AT_EPOCH":1513,"BSTAR":0.0011589326,"MEAN_MOTION_DOT":0.00031775,"MEAN_MOTION_DDOT":0}]
